OBJECT C                
1 57582U 23117C   25280.32509292  .00022042  00000+0  79454-3 0  9991
2 57582  97.4355 354.8762 0009322  64.1108 296.1092 15.28518026119786
